CCSDS_OEM_VERS = 1.0
CREATION_DATE  = 2017-05-11T12:04:33
ORIGINATOR     = GMAT USER

META_START
OBJECT_NAME          = MOPSSat_alt_35785_km_RAAN_270_134
OBJECT_ID            = SatId
CENTER_NAME          = Earth
REF_FRAME            = EME2000
TIME_SYSTEM          = UTC
START_TIME           = 2017-01-01T00:00:00.000
USEABLE_START_TIME   = 2017-01-01T00:00:00.000
USEABLE_STOP_TIME    = 2017-01-02T00:00:00.000
STOP_TIME            = 2017-01-02T00:00:00.000
INTERPOLATION        = Lagrange
INTERPOLATION_DEGREE = 7 
META_STOP


                                                                                   

2017-01-01T16:57:30.000  -3.208378925985077e+04   4.036448774815870e+04   1.943696901434987e+00  -1.285010212917376e+00  -2.087004256939935e+00   1.129249432898555e-04
2017-01-01T16:57:40.000  -3.209663469619141e+04   4.034361183773804e+04   1.944826087436167e+00  -1.284076943290491e+00  -2.088177863029777e+00   1.129122475798303e-04
2017-01-01T16:57:50.000  -3.210947079583013e+04   4.032272419123308e+04   1.945955146142269e+00  -1.283142846552222e+00  -2.089351431710215e+00   1.128994819875984e-04
2017-01-01T16:58:00.000  -3.212229755049246e+04   4.030182480901881e+04   1.947084076854111e+00  -1.282207922062253e+00  -2.090524962739027e+00   1.128866464414525e-04
2017-01-01T16:58:10.000  -3.213511495189051e+04   4.028091369148339e+04   1.948212878871197e+00  -1.281272169179984e+00  -2.091698455872722e+00   1.128737408696106e-04
2017-01-01T16:58:20.000  -3.214792299160099e+04   4.025999083923054e+04   1.949341551480884e+00  -1.280335587273642e+00  -2.092871910855271e+00   1.128607652003547e-04
2017-01-01T16:58:30.000  -3.216072166123004e+04   4.023905625280742e+04   1.950470093972980e+00  -1.279398175708054e+00  -2.094045327433294e+00   1.128477193618490e-04
2017-01-01T16:58:40.000  -3.217351095234816e+04   4.021810993281157e+04   1.951598505633993e+00  -1.278459933849448e+00  -2.095218705350072e+00   1.128346032822102e-04
2017-01-01T16:58:50.000  -3.218629085677880e+04   4.019715187941841e+04   1.952726785772589e+00  -1.277520861044283e+00  -2.096392044372023e+00   1.128214168892056e-04
2017-01-01T16:59:00.000  -3.219906136630962e+04   4.017618209285367e+04   1.953854933694132e+00  -1.276580956640412e+00  -2.097565344262229e+00   1.128081601105537e-04
2017-01-01T16:59:10.000  -3.221182247275799e+04   4.015520057328686e+04   1.954982948706437e+00  -1.275640219982306e+00  -2.098738604786412e+00   1.127948328738569e-04
2017-01-01T16:59:20.000  -3.222457416780439e+04   4.013420732110131e+04   1.956110830105145e+00  -1.274698650423131e+00  -2.099911825697740e+00   1.127814351067707e-04
2017-01-01T16:59:30.000  -3.223731644311631e+04   4.011320233669418e+04   1.957238577184589e+00  -1.273756247315809e+00  -2.101085006748105e+00   1.127679667368788e-04
2017-01-01T16:59:40.000  -3.225004929034797e+04   4.009218562047570e+04   1.958366189237781e+00  -1.272813010012979e+00  -2.102258147688127e+00   1.127544276916913e-04
2017-01-01T16:59:50.000  -3.226277270101890e+04   4.007115717307298e+04   1.959493665545591e+00  -1.271868937876177e+00  -2.103431248255872e+00   1.127408178987780e-04
2017-01-01T17:00:00.000  -3.227548666667780e+04   4.005011699505620e+04   1.960621005391330e+00  -1.270924030263505e+00  -2.104604308192040e+00   1.127271372855906e-04
2017-01-01T17:00:10.000  -3.228819117883777e+04   4.002906508704629e+04   1.961748208055004e+00  -1.269978286534480e+00  -2.105777327233984e+00   1.127133857795310e-04
2017-01-01T17:00:20.000  -3.230088622926318e+04   4.000800144923992e+04   1.962875272838744e+00  -1.269031706028690e+00  -2.106950305142173e+00   1.126995633076485e-04
2017-01-01T17:00:30.000  -3.231357180968270e+04   3.998692608188449e+04   1.964002199041379e+00  -1.268084288087129e+00  -2.108123241673723e+00   1.126856697969419e-04
2017-01-01T17:00:40.000  -3.232624791185436e+04   3.996583898517079e+04   1.965128985964175e+00  -1.267136032047379e+00  -2.109296136588382e+00   1.126717051742936e-04
2017-01-01T17:00:50.000  -3.233891452740011e+04   3.994474015950468e+04   1.966255632896231e+00  -1.266186937255782e+00  -2.110468989633326e+00   1.126576693666335e-04
2017-01-01T17:01:00.000  -3.235157164792893e+04   3.992362960530588e+04   1.967382139125328e+00  -1.265237003058441e+00  -2.111641800554451e+00   1.126435623008219e-04
2017-01-01T17:01:10.000  -3.236421926503646e+04   3.990250732300736e+04   1.968508503937922e+00  -1.264286228801166e+00  -2.112814569096362e+00   1.126293839036427e-04
2017-01-01T17:01:20.000  -3.237685737018446e+04   3.988137331326008e+04   1.969634726608332e+00  -1.263334613838735e+00  -2.113987294991101e+00   1.126151341019548e-04
2017-01-01T17:01:30.000  -3.238948595486356e+04   3.986022757665778e+04   1.970760806413308e+00  -1.262382157522466e+00  -2.115159977973333e+00   1.126008128224942e-04
2017-01-01T17:01:40.000  -3.240210501052770e+04   3.983907011384744e+04   1.971886742626180e+00  -1.261428859205193e+00  -2.116332617774243e+00   1.125864199919513e-04
2017-01-01T17:01:50.000  -3.241471452888379e+04   3.981790092504358e+04   1.973012534542690e+00  -1.260474718219392e+00  -2.117505214148448e+00   1.125719555366360e-04
2017-01-01T17:02:00.000  -3.242731450160125e+04   3.979672001051514e+04   1.974138181455094e+00  -1.259519733899102e+00  -2.118677766847012e+00   1.125574193828126e-04
2017-01-01T17:02:10.000  -3.243990492038708e+04   3.977552737045968e+04   1.975263682658843e+00  -1.258563905574268e+00  -2.119850275624414e+00   1.125428114566139e-04
2017-01-01T17:02:20.000  -3.245248577678370e+04   3.975432300534070e+04   1.976389037434600e+00  -1.257607232585914e+00  -2.121022740219821e+00   1.125281316842691e-04
2017-01-01T17:02:30.000  -3.246505706233601e+04   3.973310691560958e+04   1.977514245063081e+00  -1.256649714273635e+00  -2.122195160372533e+00   1.125133799919170e-04
2017-01-01T17:02:40.000  -3.247761876855394e+04   3.971187910176760e+04   1.978639304821743e+00  -1.255691349978392e+00  -2.123367535818541e+00   1.124985563056467e-04
2017-01-01T17:02:50.000  -3.249017088692325e+04   3.969063956434985e+04   1.979764215985691e+00  -1.254732139041797e+00  -2.124539866291462e+00   1.124836605514911e-04
2017-01-01T17:03:00.000  -3.250271340891756e+04   3.966938830390346e+04   1.980888977828791e+00  -1.253772080805114e+00  -2.125712151523699e+00   1.124686926554075e-04
2017-01-01T17:03:10.000  -3.251524632600274e+04   3.964812532097988e+04   1.982013589624076e+00  -1.252811174608919e+00  -2.126884391246870e+00   1.124536525432730e-04
2017-01-01T17:03:20.000  -3.252776962968220e+04   3.962685061605941e+04   1.983138050647770e+00  -1.251849419789686e+00  -2.128056585195992e+00   1.124385401408294e-04
2017-01-01T17:03:30.000  -3.254028331146655e+04   3.960556418960133e+04   1.984262360176599e+00  -1.250886815682045e+00  -2.129228733106689e+00   1.124233553737200e-04
2017-01-01T17:03:40.000  -3.255278736287365e+04   3.958426604204392e+04   1.985386517487797e+00  -1.249923361618791e+00  -2.130400834715187e+00   1.124080981674887e-04
2017-01-01T17:03:50.000  -3.256528177545809e+04   3.956295617375345e+04   1.986510521861772e+00  -1.248959056928548e+00  -2.131572889761108e+00   1.123927684475460e-04
2017-01-01T17:04:00.000  -3.257776654076675e+04   3.954163458510052e+04   1.987634372578095e+00  -1.247993900939244e+00  -2.132744897983275e+00   1.123773661392201e-04
2017-01-01T17:04:10.000  -3.259024165033429e+04   3.952030127646789e+04   1.988758068915093e+00  -1.247027892978459e+00  -2.133916859119293e+00   1.123618911677649e-04
2017-01-01T17:04:20.000  -3.260270709567020e+04   3.949895624827103e+04   1.989881610148721e+00  -1.246061032374340e+00  -2.135088772904371e+00   1.123463434583644e-04
2017-01-01T17:04:30.000  -3.261516286824950e+04   3.947759950097607e+04   1.991004995551668e+00  -1.245093318456428e+00  -2.136260639070390e+00   1.123307229361569e-04
2017-01-01T17:04:40.000  -3.262760895954908e+04   3.945623103503655e+04   1.992128224396667e+00  -1.244124750552793e+00  -2.137432457349351e+00   1.123150295261842e-04
2017-01-01T17:04:50.000  -3.264004536088468e+04   3.943485085117629e+04   1.993251295941700e+00  -1.243155328002876e+00  -2.138604227457929e+00   1.122992631536123e-04
2017-01-01T17:05:00.000  -3.265247206360862e+04   3.941345895004693e+04   1.994374209447918e+00  -1.242185050141942e+00  -2.139775949116186e+00   1.122834237434662e-04
2017-01-01T17:05:10.000  -3.266488905903616e+04   3.939205533235516e+04   1.995496964172981e+00  -1.241213916306846e+00  -2.140947622040604e+00   1.122675112207286e-04
2017-01-01T17:05:20.000  -3.267729633873127e+04   3.937063999837061e+04   1.996619559396876e+00  -1.240241925813713e+00  -2.142119245971044e+00   1.122515255099672e-04
2017-01-01T17:05:30.000  -3.268969389422141e+04   3.934921294841649e+04   1.997741994396159e+00  -1.239269077980192e+00  -2.143290820643854e+00   1.122354665357047e-04
2017-01-01T17:05:40.000  -3.270208171706242e+04   3.932777418275885e+04   1.998864268449791e+00  -1.238295372120433e+00  -2.144462345797963e+00   1.122193342223358e-04
2017-01-01T17:05:50.000  -3.271445979867667e+04   3.930632370188243e+04   1.999986380824585e+00  -1.237320807557574e+00  -2.145633821159699e+00   1.122031284943316e-04
2017-01-01T17:06:00.000  -3.272682813047355e+04   3.928486150628634e+04   2.001108330786012e+00  -1.236345383614503e+00  -2.146805246454059e+00   1.121868492760888e-04
2017-01-01T17:06:10.000  -3.273918670384892e+04   3.926338759648326e+04   2.002230117598196e+00  -1.235369099613805e+00  -2.147976621404704e+00   1.121704964919281e-04
2017-01-01T17:06:20.000  -3.275153551006756e+04   3.924190197320759e+04   2.003351740513150e+00  -1.234391954887270e+00  -2.149147945722701e+00   1.121540700662540e-04
2017-01-01T17:06:30.000  -3.276387454042205e+04   3.922040463713588e+04   2.004473198785274e+00  -1.233413948763129e+00  -2.150319219121687e+00   1.121375699233405e-04
